<?xml version="1.0" encoding="UTF-8"?>
<omm id="CCSDS_OMM_VERS" version="3.0">
  <header>
    <COMMENT>GENERATED FROM SPACE-TRACK CATALOG</COMMENT>
    <CREATION_DATE>2020-065T16:00:00</CREATION_DATE>
    <ORIGINATOR>18 SPCS</ORIGINATOR>
  </header>
  <body>
    <segment>
      <metadata>
        <OBJECT_NAME>STARLETTE</OBJECT_NAME>
        <OBJECT_ID>1975-010A</OBJECT_ID>
        <CENTER_NAME>EARTH</CENTER_NAME>
        <REF_FRAME>TEME</REF_FRAME>
        <TIME_SYSTEM>UTC</TIME_SYSTEM>
        <MEAN_ELEMENT_THEORY>SGP4</MEAN_ELEMENT_THEORY>
      </metadata>
      <data>
        <meanElements>
          <COMMENT>mean Keplerian elements</COMMENT>
          <EPOCH>2020-03-04T10:34:41.4264</EPOCH>
          <MEAN_MOTION>13.84653757</MEAN_MOTION>
          <ECCENTRICITY>0.0205751</ECCENTRICITY>
          <INCLINATION>49.8237</INCLINATION>
          <RA_OF_ASC_NODE>99.5917</RA_OF_ASC_NODE>
          <ARG_OF_PERICENTER>224.3636</ARG_OF_PERICENTER>
          <MEAN_ANOMALY>133.6754</MEAN_ANOMALY>
        </meanElements>
        <spacecraftParameters>
          <MASS>47.0</MASS>
          <SOLAR_RAD_AREA>0.2</SOLAR_RAD_AREA>
          <SOLAR_RAD_COEFF>1.2</SOLAR_RAD_COEFF>
          <DRAG_AREA>0.2</DRAG_AREA>
          <DRAG_COEFF>2.2</DRAG_COEFF>
        </spacecraftParameters>
        <tleParameters>
          <EPHEMERIS_TYPE>0</EPHEMERIS_TYPE>
          <CLASSIFICATION_TYPE>U</CLASSIFICATION_TYPE>
          <NORAD_CAT_ID>7646</NORAD_CAT_ID>
          <ELEMENT_SET_NO>999</ELEMENT_SET_NO>
          <REV_AT_EPOCH>32997</REV_AT_EPOCH>
          <BSTAR>0.00021071</BSTAR>
          <MEAN_MOTION_DOT>-1.6E-07</MEAN_MOTION_DOT>
          <MEAN_MOTION_DDOT>0.0</MEAN_MOTION_DDOT>
        </tleParameters>
        <covarianceMatrix>
          <COMMENT>covariance in the RTN frame</COMMENT>
          <COV_REF_FRAME>RTN</COV_REF_FRAME>
          <CX_X>0.31</CX_X>
          <CY_X>0.32</CY_X>
          <CY_Y>0.33</CY_Y>
          <CZ_X>0.34</CZ_X>
          <CZ_Y>0.35</CZ_Y>
          <CZ_Z>0.36</CZ_Z>
          <CX_DOT_X>0.37</CX_DOT_X>
          <CX_DOT_Y>0.38</CX_DOT_Y>
          <CX_DOT_Z>0.39</CX_DOT_Z>
          <CX_DOT_X_DOT>0.4</CX_DOT_X_DOT>
          <CY_DOT_X>0.41</CY_DOT_X>
          <CY_DOT_Y>0.42</CY_DOT_Y>
          <CY_DOT_Z>0.43</CY_DOT_Z>
          <CY_DOT_X_DOT>0.44</CY_DOT_X_DOT>
          <CY_DOT_Y_DOT>0.45</CY_DOT_Y_DOT>
          <CZ_DOT_X>0.46</CZ_DOT_X>
          <CZ_DOT_Y>0.47</CZ_DOT_Y>
          <CZ_DOT_Z>0.48</CZ_DOT_Z>
          <CZ_DOT_X_DOT>0.49</CZ_DOT_X_DOT>
          <CZ_DOT_Y_DOT>0.5</CZ_DOT_Y_DOT>
          <CZ_DOT_Z_DOT>0.51</CZ_DOT_Z_DOT>
        </covarianceMatrix>
        <userDefinedParameters>
          <USER_DEFINED parameter="INTLDES">1975-010A</USER_DEFINED>
        </userDefinedParameters>
      </data>
    </segment>
  </body>
</omm>
